25112,ORBCOMM FM08,1997,99.8,45.0,-,45.01,Inactive,1,LEO,Eastern Range Airspace,ORBCOMM,Commercial,Communications,Pegasus,1 25112U 97084A   24182.56928459  .00002292  00000+0  72211-3 0  9994,2 25112  45.0137 252.2242 0009549 270.2513  89.7243 14.42856413390530,14.42856413,0.0009549,LEO
25113,ORBCOMM FM10,1997,99.81,45.0,-,45.02,Inactive,1,LEO,Eastern Range Airspace,ORBCOMM,Commercial,Communications,Pegasus,1 25113U 97084B   24182.57980216  .00002710  00000+0  84794-3 0  9999,2 25113  45.0150 254.0745 0007235 248.5103 111.4976 14.42755226565683,14.42755226,0.0007235,LEO
25115,ORBCOMM FM12,1997,99.82,45.0,-,45.01,Inactive,1,LEO,Eastern Range Airspace,ORBCOMM,Commercial,Communications,Pegasus,1 25115U 97084D   24182.56405924  .00002358  00000+0  74612-3 0  9994,2 25115  45.0141 253.9746 0007059 248.9252 111.0843 14.42586659390448,14.42586659,0.0007059,LEO
25116,ORBCOMM FM09,1997,99.82,45.0,-,45.02,Inactive,1,LEO,Eastern Range Airspace,ORBCOMM,Commercial,Communications,Pegasus,1 25116U 97084E   24182.57667118  .00002349  00000+0  74384-3 0  9997,2 25116  45.0148 254.6165 0007937 237.4085 122.5999 14.42551262390655,14.42551262,0.0007937,LEO
21576,ORBCOMM-X,1991,99.82,-1.0,-,98.39,Inactive,0,LEO,French Guiana,ORBCOMM,Unknown,Unknown,Unknown,1 21576U 91050C   24182.46475252  .00000724  00000+0  23107-3 0  9996,2 21576  98.3891 249.4752 0004189 152.8908 207.2501 14.42570793731391,14.42570793,0.0004189,LEO
23545,ORBCOMM FM01,1995,97.25,-1.0,-,69.97,Inactive,0,LEO,Western Range Airspace,ORBCOMM,Unknown,Unknown,Unknown,1 23545U 95017A   24182.51589366  .00007339  00000+0  95966-3 0  9990,2 23545  69.9663 225.1831 0004344 173.3492 186.7716 14.80796487560276,14.80796487,0.0004344,LEO
23546,ORBCOMM FM02,1995,97.27,-1.0,-,69.97,Inactive,0,LEO,Western Range Airspace,ORBCOMM,Unknown,Unknown,Unknown,1 23546U 95017B   24182.55772287  .00008138  00000+0  10712-2 0  9994,2 23546  69.9683 244.5885 0005674 153.8476 206.2961 14.80461097559921,14.80461097,0.0005674,LEO
25114,ORBCOMM FM11,1997,99.82,45.0,+,45.01,Active,1,LEO,Eastern Range Airspace,ORBCOMM,Commercial,Communications,Pegasus,1 25114U 97084C   24182.60297148  .00002344  00000+0  74111-3 0  9994,2 25114  45.0135 254.0755 0008029 248.3213 111.6782 14.42624139390658,14.42624139,0.0008029,LEO
